{
  "type": "FeatureCollection",
  "features": [
    {
      "type": "Feature",
      "properties": {
        "norad_id": 32316,
        "name": "FENGYUN 1C DEB",
        "group": "fengyun-1c-debris",
        "lat": 27.92229998021607,
        "lon": -164.3258030370632,
        "alt_km": 737.217992745369,
        "timestamp": "2025-12-10T09:57:44.985312+00:00",
        "meta_object_name": "FENGYUN 1C DEB",
        "meta_object_id": "1999-025CXH",
        "meta_epoch": "2025-12-08T20:03:01.939104",
        "meta_mean_motion": 14.51782833,
        "meta_eccentricity": 0.00265331,
        "meta_inclination": 99.5289,
        "meta_ra_of_asc_node": 8.7775,
        "meta_arg_of_pericenter": 341.2638,
        "meta_mean_anomaly": 198.8377,
        "meta_ephemeris_type": 0,
        "meta_classification_type": "U",
        "meta_norad_cat_id": 32316,
        "meta_element_set_no": 999,
        "meta_rev_at_epoch": 95720,
        "meta_bstar": 0.0028953456,
        "meta_mean_motion_dot": 0.00011659,
        "meta_mean_motion_ddot": 0,
        "tle_line1": "1 32316U 99025CXH 25342.83543911  .00011659  00000+0  28953-2 0  9990",
        "tle_line2": "2 32316  99.5289   8.7775 0026533 341.2638 198.8377 14.51782833957207"
      },
      "geometry": {
        "type": "Point",
        "coordinates": [
          -164.3258030370632,
          27.92229998021607
        ]
      }
    },
    {
      "type": "Feature",
      "properties": {
        "norad_id": 32320,
        "name": "FENGYUN 1C DEB",
        "group": "fengyun-1c-debris",
        "lat": -14.639231836996995,
        "lon": 18.286435037140095,
        "alt_km": 806.7262006012261,
        "timestamp": "2025-12-10T09:57:44.985323+00:00",
        "meta_object_name": "FENGYUN 1C DEB",
        "meta_object_id": "1999-025CXM",
        "meta_epoch": "2025-12-06T08:04:56.354304",
        "meta_mean_motion": 14.36096557,
        "meta_eccentricity": 0.00560395,
        "meta_inclination": 100.3737,
        "meta_ra_of_asc_node": 196.129,
        "meta_arg_of_pericenter": 65.6155,
        "meta_mean_anomaly": 295.0859,
        "meta_ephemeris_type": 0,
        "meta_classification_type": "U",
        "meta_norad_cat_id": 32320,
        "meta_element_set_no": 999,
        "meta_rev_at_epoch": 62081,
        "meta_bstar": 0.001523428,
        "meta_mean_motion_dot": 4.459e-05,
        "meta_mean_motion_ddot": 0,
        "tle_line1": "1 32320U 99025CXM 25340.33676336  .00004459  00000+0  15234-2 0  9994",
        "tle_line2": "2 32320 100.3737 196.1290 0056039  65.6155 295.0859 14.36096557620813"
      },
      "geometry": {
        "type": "Point",
        "coordinates": [
          18.286435037140095,
          -14.639231836996995
        ]
      }
    },
    {
      "type": "Feature",
      "properties": {
        "norad_id": 32322,
        "name": "FENGYUN 1C DEB",
        "group": "fengyun-1c-debris",
        "lat": 51.70135400503542,
        "lon": -143.8077376173803,
        "alt_km": 920.4286318363129,
        "timestamp": "2025-12-10T09:57:44.985333+00:00",
        "meta_object_name": "FENGYUN 1C DEB",
        "meta_object_id": "1999-025CXP",
        "meta_epoch": "2025-12-08T21:42:27.593856",
        "meta_mean_motion": 13.34125236,
        "meta_eccentricity": 0.0418921,
        "meta_inclination": 98.3703,
        "meta_ra_of_asc_node": 225.6967,
        "meta_arg_of_pericenter": 107.3236,
        "meta_mean_anomaly": 257.4162,
        "meta_ephemeris_type": 0,
        "meta_classification_type": "U",
        "meta_norad_cat_id": 32322,
        "meta_element_set_no": 999,
        "meta_rev_at_epoch": 60328,
        "meta_bstar": 0.0014414,
        "meta_mean_motion_dot": 1.148e-05,
        "meta_mean_motion_ddot": 0,
        "tle_line1": "1 32322U 99025CXP 25342.90448604  .00001148  00000+0  14414-2 0  9997",
        "tle_line2": "2 32322  98.3703 225.6967 0418921 107.3236 257.4162 13.34125236603284"
      },
      "geometry": {
        "type": "Point",
        "coordinates": [
          -143.8077376173803,
          51.70135400503542
        ]
      }
    },
    {
      "type": "Feature",
      "properties": {
        "norad_id": 32323,
        "name": "FENGYUN 1C DEB",
        "group": "fengyun-1c-debris",
        "lat": 81.01582191465195,
        "lon": 20.22377865632873,
        "alt_km": 960.6966441671993,
        "timestamp": "2025-12-10T09:57:44.985343+00:00",
        "meta_object_name": "FENGYUN 1C DEB",
        "meta_object_id": "1999-025CXQ",
        "meta_epoch": "2025-12-05T16:00:52.628256",
        "meta_mean_motion": 13.96423813,
        "meta_eccentricity": 0.01564823,
        "meta_inclination": 98.5677,
        "meta_ra_of_asc_node": 123.338,
        "meta_arg_of_pericenter": 229.7568,
        "meta_mean_anomaly": 128.9821,
        "meta_ephemeris_type": 0,
        "meta_classification_type": "U",
        "meta_norad_cat_id": 32323,
        "meta_element_set_no": 999,
        "meta_rev_at_epoch": 60171,
        "meta_bstar": 0.0059154955,
        "meta_mean_motion_dot": 9.02e-05,
        "meta_mean_motion_ddot": 0,
        "tle_line1": "1 32323U 99025CXQ 25339.66727579  .00009020  00000+0  59155-2 0  9996",
        "tle_line2": "2 32323  98.5677 123.3380 0156482 229.7568 128.9821 13.96423813601718"
      },
      "geometry": {
        "type": "Point",
        "coordinates": [
          20.22377865632873,
          81.01582191465195
        ]
      }
    },
    {
      "type": "Feature",
      "properties": {
        "norad_id": 32324,
        "name": "FENGYUN 1C DEB",
        "group": "fengyun-1c-debris",
        "lat": 10.77439106656159,
        "lon": -92.13197450501298,
        "alt_km": 890.7613503790699,
        "timestamp": "2025-12-10T09:57:44.985353+00:00",
        "meta_object_name": "FENGYUN 1C DEB",
        "meta_object_id": "1999-025CXR",
        "meta_epoch": "2025-12-08T06:02:37.847616",
        "meta_mean_motion": 14.09135858,
        "meta_eccentricity": 0.00501078,
        "meta_inclination": 99.5339,
        "meta_ra_of_asc_node": 83.7481,
        "meta_arg_of_pericenter": 36.451,
        "meta_mean_anomaly": 324.0052,
        "meta_ephemeris_type": 0,
        "meta_classification_type": "U",
        "meta_norad_cat_id": 32324,
        "meta_element_set_no": 999,
        "meta_rev_at_epoch": 63935,
        "meta_bstar": 0.00079862211,
        "meta_mean_motion_dot": 1.354e-05,
        "meta_mean_motion_ddot": 0,
        "tle_line1": "1 32324U 99025CXR 25342.25182694  .00001354  00000+0  79862-3 0  9999",
        "tle_line2": "2 32324  99.5339  83.7481 0050107  36.4510 324.0052 14.09135858639353"
      },
      "geometry": {
        "type": "Point",
        "coordinates": [
          -92.13197450501298,
          10.77439106656159
        ]
      }
    },
    {
      "type": "Feature",
      "properties": {
        "norad_id": 32326,
        "name": "FENGYUN 1C DEB",
        "group": "fengyun-1c-debris",
        "lat": 26.167878529348833,
        "lon": -90.15196641282574,
        "alt_km": 1130.180039820425,
        "timestamp": "2025-12-10T09:57:44.985363+00:00",
        "meta_object_name": "FENGYUN 1C DEB",
        "meta_object_id": "1999-025CXT",
        "meta_epoch": "2025-11-30T02:32:37.979232",
        "meta_mean_motion": 13.69261307,
        "meta_eccentricity": 0.03856265,
        "meta_inclination": 98.486,
        "meta_ra_of_asc_node": 264.9459,
        "meta_arg_of_pericenter": 173.0082,
        "meta_mean_anomaly": 187.6669,
        "meta_ephemeris_type": 0,
        "meta_classification_type": "U",
        "meta_norad_cat_id": 32326,
        "meta_element_set_no": 999,
        "meta_rev_at_epoch": 63009,
        "meta_bstar": 0.00044957354,
        "meta_mean_motion_dot": 6.22e-06,
        "meta_mean_motion_ddot": 0,
        "tle_line1": "1 32326U 99025CXT 25334.10599513  .00000622  00000+0  44957-3 0  9992",
        "tle_line2": "2 32326  98.4860 264.9459 0385626 173.0082 187.6669 13.69261307630092"
      },
      "geometry": {
        "type": "Point",
        "coordinates": [
          -90.15196641282574,
          26.167878529348833
        ]
      }
    },
    {
      "type": "Feature",
      "properties": {
        "norad_id": 32331,
        "name": "FENGYUN 1C DEB",
        "group": "fengyun-1c-debris",
        "lat": -8.596970959785589,
        "lon": -46.91079968692543,
        "alt_km": 666.8068712919157,
        "timestamp": "2025-12-10T09:57:44.985373+00:00",
        "meta_object_name": "FENGYUN 1C DEB",
        "meta_object_id": "1999-025CXY",
        "meta_epoch": "2025-11-11T08:35:02.141088",
        "meta_mean_motion": 14.68670701,
        "meta_eccentricity": 0.0013407,
        "meta_inclination": 99.1837,
        "meta_ra_of_asc_node": 279.0061,
        "meta_arg_of_pericenter": 226.0291,
        "meta_mean_anomaly": 133.9806,
        "meta_ephemeris_type": 0,
        "meta_classification_type": "U",
        "meta_norad_cat_id": 32331,
        "meta_element_set_no": 999,
        "meta_rev_at_epoch": 60157,
        "meta_bstar": 0.0092524,
        "meta_mean_motion_dot": 0.0005428,
        "meta_mean_motion_ddot": 0,
        "tle_line1": "1 32331U 99025CXY 25315.35766367  .00054280  00000+0  92524-2 0  9998",
        "tle_line2": "2 32331  99.1837 279.0061 0013407 226.0291 133.9806 14.68670701601572"
      },
      "geometry": {
        "type": "Point",
        "coordinates": [
          -46.91079968692543,
          -8.596970959785589
        ]
      }
    }
  ]
}